start=new Date('2022-04-07T00:00:00.000Z').valueOf();
sats=[{"EPOCH":"2022-04-06T12:44:50.390592","OBJECT_TYPE":"PAYLOAD","ARG_OF_PERICENTER":"60.5282","MEAN_MOTION_DDOT":"0.0000000000000","OBJECT_ID":"2021-036U","FILE":"3391034","CLASSIFICATION_TYPE":"U","RA_OF_ASC_NODE":"35.3237","PERIAPSIS":"546.085","MEAN_ANOMALY":"299.5877","INCLINATION":"53.0559","TLE_LINE1":"1 48294U 21036U   22096.53113878  .00000303  00000-0  39227-4 0  9997","APOAPSIS":"548.453","PERIOD":"95.593","TIME_SYSTEM":"UTC","OBJECT_NAME":"STARLINK-2533","ECCENTRICITY":"0.00017100","MEAN_MOTION_DOT":"0.00000303","MEAN_ELEMENT_THEORY":"SGP4","SITE":"AFETR","EPHEMERIS_TYPE":"0","RCS_SIZE":"LARGE","TLE_LINE2":"2 48294  53.0559  35.3237 0001710  60.5282 299.5877 15.06381931 52888","ELEMENT_SET_NO":"999","LAUNCH_DATE":"2021-04-29","CENTER_NAME":"EARTH","REF_FRAME":"TEME","NORAD_CAT_ID":"48294","BSTAR":"0.00003922700000","GP_ID":"200596798","REV_AT_EPOCH":"5288","MEAN_MOTION":"15.06381931","COUNTRY_CODE":"US","DECAY_DATE":null,"SEMIMAJOR_AXIS":"6925.404"},{"MEAN_MOTION":"15.06384170","REV_AT_EPOCH":"5288","GP_ID":"200595335","SEMIMAJOR_AXIS":"6925.397","DECAY_DATE":null,"COUNTRY_CODE":"US","RCS_SIZE":"LARGE","SITE":"AFETR","EPHEMERIS_TYPE":"0","MEAN_ELEMENT_THEORY":"SGP4","MEAN_MOTION_DOT":"0.00001993","BSTAR":"0.00015275000000","REF_FRAME":"TEME","NORAD_CAT_ID":"48295","CENTER_NAME":"EARTH","LAUNCH_DATE":"2021-04-29","ELEMENT_SET_NO":"999","TLE_LINE2":"2 48295  53.0574  35.3240 0001512  64.3354 295.7791 15.06384170 52883","TIME_SYSTEM":"UTC","PERIOD":"95.593","APOAPSIS":"548.309","TLE_LINE1":"1 48295U 21036V   22096.52744705  .00001993  00000-0  15275-3 0  9998","ECCENTRICITY":"0.00015120","OBJECT_NAME":"STARLINK-2535","ARG_OF_PERICENTER":"64.3354","MEAN_MOTION_DDOT":"0.0000000000000","OBJECT_TYPE":"PAYLOAD","EPOCH":"2022-04-06T12:39:31.425120","INCLINATION":"53.0574","MEAN_ANOMALY":"295.7791","PERIAPSIS":"546.215","RA_OF_ASC_NODE":"35.3240","FILE":"3390972","CLASSIFICATION_TYPE":"U","OBJECT_ID":"2021-036V"},{"MEAN_MOTION":"15.06403561","REV_AT_EPOCH":"5293","GP_ID":"200596340","SEMIMAJOR_AXIS":"6925.338","DECAY_DATE":null,"COUNTRY_CODE":"US","RCS_SIZE":"LARGE","SITE":"AFETR","EPHEMERIS_TYPE":"0","MEAN_ELEMENT_THEORY":"SGP4","MEAN_MOTION_DOT":"0.00001670","BSTAR":"0.00013098000000","REF_FRAME":"TEME","NORAD_CAT_ID":"48296","CENTER_NAME":"EARTH","LAUNCH_DATE":"2021-04-29","ELEMENT_SET_NO":"999","TLE_LINE2":"2 48296  53.0563  33.8629 0001531  65.2316 294.8833 15.06403561 52934","TIME_SYSTEM":"UTC","PERIOD":"95.592","APOAPSIS":"548.263","TLE_LINE1":"1 48296U 21036W   22096.85548350  .00001670  00000-0  13098-3 0  9996","ECCENTRICITY":"0.00015310","OBJECT_NAME":"STARLINK-2546","MEAN_MOTION_DDOT":"0.0000000000000","ARG_OF_PERICENTER":"65.2316","OBJECT_TYPE":"PAYLOAD","EPOCH":"2022-04-06T20:31:53.774400","INCLINATION":"53.0563","MEAN_ANOMALY":"294.8833","PERIAPSIS":"546.142","RA_OF_ASC_NODE":"33.8629","CLASSIFICATION_TYPE":"U","FILE":"3390998","OBJECT_ID":"2021-036W"},{"RCS_SIZE":"LARGE","MEAN_ELEMENT_THEORY":"SGP4","EPHEMERIS_TYPE":"0","SITE":"AFETR","MEAN_MOTION_DOT":"-0.00003150","BSTAR":"-0.00019271000000","NORAD_CAT_ID":"48297","REF_FRAME":"TEME","LAUNCH_DATE":"2021-04-29","CENTER_NAME":"EARTH","TLE_LINE2":"2 48297  53.0557  35.3656 0002109  39.1605 320.9536 15.06383604 52305","ELEMENT_SET_NO":"999","MEAN_MOTION":"15.06383604","REV_AT_EPOCH":"5230","GP_ID":"200591078","SEMIMAJOR_AXIS":"6925.399","DECAY_DATE":null,"COUNTRY_CODE":"US","MEAN_MOTION_DDOT":"0.0000000000000","ARG_OF_PERICENTER":"39.1605","EPOCH":"2022-04-06T12:28:54.801408","OBJECT_TYPE":"PAYLOAD","INCLINATION":"53.0557","RA_OF_ASC_NODE":"35.3656","PERIAPSIS":"545.803","MEAN_ANOMALY":"320.9536","FILE":"3390907","CLASSIFICATION_TYPE":"U","OBJECT_ID":"2021-036X","TIME_SYSTEM":"UTC","APOAPSIS":"548.724","PERIOD":"95.593","TLE_LINE1":"1 48297U 21036X   22096.52007872 -.00003150  00000-0 -19271-3 0  9996","ECCENTRICITY":"0.00021090","OBJECT_NAME":"STARLINK-2544"},{"REV_AT_EPOCH":"5234","GP_ID":"200625573","MEAN_MOTION":"15.06408116","DECAY_DATE":null,"COUNTRY_CODE":"US","SEMIMAJOR_AXIS":"6925.324","MEAN_MOTION_DOT":"0.00004600","RCS_SIZE":"LARGE","EPHEMERIS_TYPE":"0","SITE":"AFETR","MEAN_ELEMENT_THEORY":"SGP4","CENTER_NAME":"EARTH","LAUNCH_DATE":"2021-04-29","ELEMENT_SET_NO":"999","TLE_LINE2":"2 48298  53.0555  34.1943 0001581  58.0611 302.0532 15.06408116 52347","BSTAR":"0.00032746000000","REF_FRAME":"TEME","NORAD_CAT_ID":"48298","TLE_LINE1":"1 48298U 21036Y   22096.78177021  .00004600  00000-0  32746-3 0  9990","TIME_SYSTEM":"UTC","PERIOD":"95.592","APOAPSIS":"548.284","ECCENTRICITY":"0.00015810","OBJECT_NAME":"STARLINK-2559","OBJECT_TYPE":"PAYLOAD","EPOCH":"2022-04-06T18:45:44.946144","ARG_OF_PERICENTER":"58.0611","MEAN_MOTION_DDOT":"0.0000000000000","CLASSIFICATION_TYPE":"U","FILE":"3391320","OBJECT_ID":"2021-036Y","INCLINATION":"53.0555","PERIAPSIS":"546.094","MEAN_ANOMALY":"302.0532","RA_OF_ASC_NODE":"34.1943"},{"MEAN_MOTION":"15.06378588","GP_ID":"200590078","REV_AT_EPOCH":"5226","SEMIMAJOR_AXIS":"6925.414","COUNTRY_CODE":"US","DECAY_DATE":null,"MEAN_ELEMENT_THEORY":"SGP4","EPHEMERIS_TYPE":"0","SITE":"AFETR","RCS_SIZE":"MEDIUM","MEAN_MOTION_DOT":"-0.00000881","NORAD_CAT_ID":"48299","REF_FRAME":"TEME","BSTAR":"-0.00004028100000","TLE_LINE2":"2 48299  53.0552  36.5936 0001682  46.3359 313.7769 15.06378588 52265","ELEMENT_SET_NO":"999","LAUNCH_DATE":"2021-04-29","CENTER_NAME":"EARTH","APOAPSIS":"548.444","PERIOD":"95.593","TIME_SYSTEM":"UTC","TLE_LINE1":"1 48299U 21036Z   22096.24732032 -.00000881  00000-0 -40281-4 0  9994","OBJECT_NAME":"STARLINK-2557","ECCENTRICITY":"0.00016820","MEAN_MOTION_DDOT":"0.0000000000000","ARG_OF_PERICENTER":"46.3359","EPOCH":"2022-04-06T05:56:08.475648","OBJECT_TYPE":"PAYLOAD","RA_OF_ASC_NODE":"36.5936","MEAN_ANOMALY":"313.7769","PERIAPSIS":"546.114","INCLINATION":"53.0552","OBJECT_ID":"2021-036Z","FILE":"3390907","CLASSIFICATION_TYPE":"U"},{"MEAN_MOTION_DOT":"0.00020386","RCS_SIZE":"LARGE","EPHEMERIS_TYPE":"0","SITE":"AFETR","MEAN_ELEMENT_THEORY":"SGP4","CENTER_NAME":"EARTH","LAUNCH_DATE":"2021-04-29","ELEMENT_SET_NO":"999","TLE_LINE2":"2 48300  53.0550  45.1525 0001406  53.8990 306.2129 15.06390136 52174","BSTAR":"0.00138390000000","REF_FRAME":"TEME","NORAD_CAT_ID":"48300","REV_AT_EPOCH":"5217","GP_ID":"200624072","MEAN_MOTION":"15.06390136","DECAY_DATE":null,"COUNTRY_CODE":"US","SEMIMAJOR_AXIS":"6925.379","OBJECT_TYPE":"PAYLOAD","EPOCH":"2022-04-06T13:41:52.405152","ARG_OF_PERICENTER":"53.8990","MEAN_MOTION_DDOT":"0.0000000000000","FILE":"3391320","CLASSIFICATION_TYPE":"U","OBJECT_ID":"2021-036AA","INCLINATION":"53.0550","MEAN_ANOMALY":"306.2129","PERIAPSIS":"546.270","RA_OF_ASC_NODE":"45.1525","TLE_LINE1":"1 48300U 21036AA  22096.57074543  .00020386  00000-0  13839-2 0  9996","TIME_SYSTEM":"UTC","PERIOD":"95.593","APOAPSIS":"548.217","ECCENTRICITY":"0.00014060","OBJECT_NAME":"STARLINK-2538"},{"EPOCH":"2022-04-06T21:34:15.584736","OBJECT_TYPE":"PAYLOAD","ARG_OF_PERICENTER":"62.7413","MEAN_MOTION_DDOT":"0.0000000000000","OBJECT_ID":"2021-036AB","FILE":"3391320","CLASSIFICATION_TYPE":"U","RA_OF_ASC_NODE":"43.6717","PERIAPSIS":"546.043","MEAN_ANOMALY":"297.3746","INCLINATION":"53.0572","TLE_LINE1":"1 48301U 21036AB  22096.89879149  .00003242  00000-0  23643-3 0  9994","APOAPSIS":"548.347","PERIOD":"95.592","TIME_SYSTEM":"UTC","OBJECT_NAME":"STARLINK-2537","ECCENTRICITY":"0.00016630","MEAN_MOTION_DOT":"0.00003242","MEAN_ELEMENT_THEORY":"SGP4","SITE":"AFETR","EPHEMERIS_TYPE":"0","RCS_SIZE":"LARGE","TLE_LINE2":"2 48301  53.0572  43.6717 0001663  62.7413 297.3746 15.06406016 52214","ELEMENT_SET_NO":"999","LAUNCH_DATE":"2021-04-29","CENTER_NAME":"EARTH","REF_FRAME":"TEME","NORAD_CAT_ID":"48301","BSTAR":"0.00023643000000","GP_ID":"200624822","REV_AT_EPOCH":"5221","MEAN_MOTION":"15.06406016","COUNTRY_CODE":"US","DECAY_DATE":null,"SEMIMAJOR_AXIS":"6925.330"},{"NORAD_CAT_ID":"48302","REF_FRAME":"TEME","BSTAR":"0.00050781000000","TLE_LINE2":"2 48302  53.0548  45.1885 0001371  55.7764 304.3355 15.06398704 52161","ELEMENT_SET_NO":"999","LAUNCH_DATE":"2021-04-29","CENTER_NAME":"EARTH","MEAN_ELEMENT_THEORY":"SGP4","SITE":"AFETR","EPHEMERIS_TYPE":"0","RCS_SIZE":"LARGE","MEAN_MOTION_DOT":"0.00007290","SEMIMAJOR_AXIS":"6925.353","COUNTRY_CODE":"US","DECAY_DATE":null,"MEAN_MOTION":"15.06398704","GP_ID":"200625074","REV_AT_EPOCH":"5216","RA_OF_ASC_NODE":"45.1885","MEAN_ANOMALY":"304.3355","PERIAPSIS":"546.268","INCLINATION":"53.0548","OBJECT_ID":"2021-036AC","CLASSIFICATION_TYPE":"U","FILE":"3391320","ARG_OF_PERICENTER":"55.7764","MEAN_MOTION_DDOT":"0.0000000000000","EPOCH":"2022-04-06T13:31:15.335616","OBJECT_TYPE":"PAYLOAD","OBJECT_NAME":"STARLINK-2556","ECCENTRICITY":"0.00013710","APOAPSIS":"548.167","PERIOD":"95.592","TIME_SYSTEM":"UTC","TLE_LINE1":"1 48302U 21036AC  22096.56337194  .00007290  00000-0  50781-3 0  9998"},{"REV_AT_EPOCH":"5221","GP_ID":"200625824","MEAN_MOTION":"15.06390751","DECAY_DATE":null,"COUNTRY_CODE":"US","SEMIMAJOR_AXIS":"6925.377","MEAN_MOTION_DOT":"-0.00000623","RCS_SIZE":"LARGE","MEAN_ELEMENT_THEORY":"SGP4","SITE":"AFETR","EPHEMERIS_TYPE":"0","LAUNCH_DATE":"2021-04-29","CENTER_NAME":"EARTH","TLE_LINE2":"2 48303  53.0574  43.7052 0001565  55.7031 304.4106 15.06390751 52218","ELEMENT_SET_NO":"999","BSTAR":"-0.00002294600000","NORAD_CAT_ID":"48303","REF_FRAME":"TEME","TLE_LINE1":"1 48303U 21036AD  22096.89142645 -.00000623  00000-0 -22946-4 0  9998","TIME_SYSTEM":"UTC","APOAPSIS":"548.326","PERIOD":"95.593","ECCENTRICITY":"0.00015650","OBJECT_NAME":"STARLINK-2530","EPOCH":"2022-04-06T21:23:39.245280","OBJECT_TYPE":"PAYLOAD","ARG_OF_PERICENTER":"55.7031","MEAN_MOTION_DDOT":"0.0000000000000","FILE":"3391320","CLASSIFICATION_TYPE":"U","OBJECT_ID":"2021-036AD","INCLINATION":"53.0574","RA_OF_ASC_NODE":"43.7052","PERIAPSIS":"546.158","MEAN_ANOMALY":"304.4106"}];
